{
  "norad_id": 68377,
  "name": "SUPERVIEW NEO-2 05",
  "history": [
    {
      "epoch": "2026-04-19T22:40:10.931808Z",
      "apogee_km": 509.22193468092973,
      "perigee_km": 505.8231731251226,
      "latitude_deg": -3.5954393908868124e-05,
      "longitude_deg": -70.0067893409481,
      "height_km": 509.98061915016444,
      "semi_major_axis_km": 6885.659553903026,
      "eccentricity": 0.0002468,
      "inclination_deg": 97.4405,
      "raan_deg": 118.0807,
      "arg_perigee_deg": 68.3624,
      "mean_anomaly_deg": 291.7873,
      "mean_motion_rev_day": 15.19443105
    },
    {
      "epoch": "2026-04-20T03:24:37.610208Z",
      "apogee_km": 507.81684404131283,
      "perigee_km": 505.56123733386266,
      "latitude_deg": 3.9401690960139546e-05,
      "longitude_deg": -141.11645494994417,
      "height_km": 509.6166830800384,
      "semi_major_axis_km": 6884.826040687587,
      "eccentricity": 0.00016381,
      "inclination_deg": 97.4407,
      "raan_deg": 118.2769,
      "arg_perigee_deg": 81.9117,
      "mean_anomaly_deg": 278.2304,
      "mean_motion_rev_day": 15.19719041
    },
    {
      "epoch": "2026-04-21T09:26:07.037664Z",
      "apogee_km": 508.5148728588565,
      "perigee_km": 504.89206980284234,
      "latitude_deg": -4.721274797083165e-05,
      "longitude_deg": 128.5062625703712,
      "height_km": 508.46684328004307,
      "semi_major_axis_km": 6884.840471330849,
      "eccentricity": 0.0002631,
      "inclination_deg": 97.4408,
      "raan_deg": 119.5053,
      "arg_perigee_deg": 43.1102,
      "mean_anomaly_deg": 317.0338,
      "mean_motion_rev_day": 15.19714263
    },
    {
      "epoch": "2026-04-22T21:46:50.331936Z",
      "apogee_km": 515.9763081046567,
      "perigee_km": 497.21953628263327,
      "latitude_deg": 5.258757494986676e-05,
      "longitude_deg": -56.68179785621626,
      "height_km": 517.5088715722535,
      "semi_major_axis_km": 6884.734922193645,
      "eccentricity": 0.0013622,
      "inclination_deg": 97.4339,
      "raan_deg": 120.9903,
      "arg_perigee_deg": 146.661,
      "mean_anomaly_deg": 213.5486,
      "mean_motion_rev_day": 15.19749211
    },
    {
      "epoch": "2026-04-22T21:46:50.332800Z",
      "apogee_km": 515.9761673857265,
      "perigee_km": 497.2196709613263,
      "latitude_deg": 5.384679035940154e-05,
      "longitude_deg": -56.68180162947101,
      "height_km": 517.5087534890866,
      "semi_major_axis_km": 6884.734919173526,
      "eccentricity": 0.00136218,
      "inclination_deg": 97.4339,
      "raan_deg": 120.9903,
      "arg_perigee_deg": 146.661,
      "mean_anomaly_deg": 213.5486,
      "mean_motion_rev_day": 15.19749212
    },
    {
      "epoch": "2026-04-24T11:42:25.125120Z",
      "apogee_km": 508.04004517657904,
      "perigee_km": 505.4635820847416,
      "latitude_deg": -2.7094273769397374e-06,
      "longitude_deg": 94.44605619173234,
      "height_km": 509.89736428501664,
      "semi_major_axis_km": 6884.8888136306605,
      "eccentricity": 0.00018711,
      "inclination_deg": 97.429,
      "raan_deg": 122.5707,
      "arg_perigee_deg": 92.638,
      "mean_anomaly_deg": 267.5069,
      "mean_motion_rev_day": 15.19698257
    },
    {
      "epoch": "2026-04-27T06:04:38.365248Z",
      "apogee_km": 507.72121671302284,
      "perigee_km": 505.6561820927427,
      "latitude_deg": -7.267152575251369e-05,
      "longitude_deg": 178.88706512857704,
      "height_km": 510.0871701570767,
      "semi_major_axis_km": 6884.8256994028825,
      "eccentricity": 0.00014997,
      "inclination_deg": 97.4398,
      "raan_deg": 125.2926,
      "arg_perigee_deg": 107.5694,
      "mean_anomaly_deg": 252.5704,
      "mean_motion_rev_day": 15.19719154
    },
    {
      "epoch": "2026-04-28T15:15:45.167616Z",
      "apogee_km": 508.25297908981247,
      "perigee_km": 505.128231232934,
      "latitude_deg": 6.182391105039355e-07,
      "longitude_deg": 41.10314479897017,
      "height_km": 510.22530773697724,
      "semi_major_axis_km": 6884.827605161373,
      "eccentricity": 0.00022693,
      "inclination_deg": 97.4406,
      "raan_deg": 126.6499,
      "arg_perigee_deg": 106.709,
      "mean_anomaly_deg": 253.4394,
      "mean_motion_rev_day": 15.19718523
    },
    {
      "epoch": "2026-04-30T00:26:52.902240Z",
      "apogee_km": 515.3890847366565,
      "perigee_km": 497.81908778969046,
      "latitude_deg": 1.5732575588751992e-05,
      "longitude_deg": -96.59536358211632,
      "height_km": 501.3583204642132,
      "semi_major_axis_km": 6884.741086263173,
      "eccentricity": 0.00127601,
      "inclination_deg": 97.4797,
      "raan_deg": 128.0965,
      "arg_perigee_deg": 341.6159,
      "mean_anomaly_deg": 18.4613,
      "mean_motion_rev_day": 15.1974717
    },
    {
      "epoch": "2026-05-02T09:20:10.434624Z",
      "apogee_km": 508.62540620113487,
      "perigee_km": 504.4340211058625,
      "latitude_deg": -4.060522020502845e-06,
      "longitude_deg": 129.99066923057293,
      "height_km": 510.45694454781875,
      "semi_major_axis_km": 6884.666713653498,
      "eccentricity": 0.0003044,
      "inclination_deg": 97.4426,
      "raan_deg": 130.3419,
      "arg_perigee_deg": 246.5351,
      "mean_anomaly_deg": 113.5564,
      "mean_motion_rev_day": 15.19771796
    },
    {
      "epoch": "2026-05-02T23:33:31.968000Z",
      "apogee_km": 507.27638854676843,
      "perigee_km": 506.18857916831894,
      "latitude_deg": -2.0457153839904046e-05,
      "longitude_deg": -83.3442557688933,
      "height_km": 509.3295239750095,
      "semi_major_axis_km": 6884.869483857544,
      "eccentricity": 7.9e-05,
      "inclination_deg": 97.4384,
      "raan_deg": 130.9308,
      "arg_perigee_deg": 334.8495,
      "mean_anomaly_deg": 25.2701,
      "mean_motion_rev_day": 15.19704657
    },
    {
      "epoch": "2026-05-04T13:29:04.388640Z",
      "apogee_km": 508.6000189678516,
      "perigee_km": 504.8353804180597,
      "latitude_deg": 4.750963530494457e-06,
      "longitude_deg": 67.77409788337789,
      "height_km": 511.6474651816767,
      "semi_major_axis_km": 6884.854699692955,
      "eccentricity": 0.0002734,
      "inclination_deg": 97.4444,
      "raan_deg": 132.4918,
      "arg_perigee_deg": 192.2162,
      "mean_anomaly_deg": 167.9007,
      "mean_motion_rev_day": 15.19709552
    },
    {
      "epoch": "2026-05-05T16:20:56.463648Z",
      "apogee_km": 507.6729042388333,
      "perigee_km": 505.69145327918613,
      "latitude_deg": 3.3155394019064165e-05,
      "longitude_deg": 24.81102641708498,
      "height_km": 510.0136223418357,
      "semi_major_axis_km": 6884.819178759009,
      "eccentricity": 0.0001439,
      "inclination_deg": 97.4394,
      "raan_deg": 133.599,
      "arg_perigee_deg": 104.2939,
      "mean_anomaly_deg": 255.8456,
      "mean_motion_rev_day": 15.19721313
    },
    {
      "epoch": "2026-05-07T07:51:18.110016Z",
      "apogee_km": 508.20261248707266,
      "perigee_km": 505.05627422246016,
      "latitude_deg": -4.975472197948856e-06,
      "longitude_deg": 152.2283776954651,
      "height_km": 511.2920841117402,
      "semi_major_axis_km": 6884.766443354766,
      "eccentricity": 0.0002285,
      "inclination_deg": 97.4329,
      "raan_deg": 135.229,
      "arg_perigee_deg": 180.6977,
      "mean_anomaly_deg": 179.4255,
      "mean_motion_rev_day": 15.19738774
    },
    {
      "epoch": "2026-05-08T09:08:21.103584Z",
      "apogee_km": 507.6700167278059,
      "perigee_km": 505.6899433643439,
      "latitude_deg": 1.1097542058277539e-05,
      "longitude_deg": 132.95551525603992,
      "height_km": 509.9105150162837,
      "semi_major_axis_km": 6884.816980046075,
      "eccentricity": 0.0001438,
      "inclination_deg": 97.4382,
      "raan_deg": 136.257,
      "arg_perigee_deg": 98.3474,
      "mean_anomaly_deg": 261.7924,
      "mean_motion_rev_day": 15.19722041
    },
    {
      "epoch": "2026-05-09T12:00:11.687328Z",
      "apogee_km": 507.013725701624,
      "perigee_km": 506.2508932621331,
      "latitude_deg": -3.307563388382676e-05,
      "longitude_deg": 90.0052852826939,
      "height_km": 510.09972470492534,
      "semi_major_axis_km": 6884.769309481879,
      "eccentricity": 5.54e-05,
      "inclination_deg": 97.4284,
      "raan_deg": 137.3708,
      "arg_perigee_deg": 187.7981,
      "mean_anomaly_deg": 172.3245,
      "mean_motion_rev_day": 15.19737825
    },
    {
      "epoch": "2026-05-10T10:07:36.787584Z",
      "apogee_km": 507.90436956286976,
      "perigee_km": 505.4740259150676,
      "latitude_deg": -7.188454470840981e-05,
      "longitude_deg": 118.13871895050328,
      "height_km": 509.70667943633987,
      "semi_major_axis_km": 6884.826197738968,
      "eccentricity": 0.0001765,
      "inclination_deg": 97.439,
      "raan_deg": 138.2674,
      "arg_perigee_deg": 86.7597,
      "mean_anomaly_deg": 273.3839,
      "mean_motion_rev_day": 15.19718989
    },
    {
      "epoch": "2026-05-11T11:24:38.977632Z",
      "apogee_km": 507.9052807318376,
      "perigee_km": 505.4588291288592,
      "latitude_deg": 3.364447965699605e-05,
      "longitude_deg": 98.87940482026072,
      "height_km": 509.66585978238135,
      "semi_major_axis_km": 6884.819054930348,
      "eccentricity": 0.00017767,
      "inclination_deg": 97.4389,
      "raan_deg": 139.3056,
      "arg_perigee_deg": 85.2012,
      "mean_anomaly_deg": 274.9426,
      "mean_motion_rev_day": 15.19721354
    },
    {
      "epoch": "2026-05-12T11:06:52.329888Z",
      "apogee_km": 507.867232321516,
      "perigee_km": 505.50298440950246,
      "latitude_deg": 8.360438503959002e-05,
      "longitude_deg": 103.32438737435129,
      "height_km": 509.69781667011705,
      "semi_major_axis_km": 6884.822108365509,
      "eccentricity": 0.0001717,
      "inclination_deg": 97.4388,
      "raan_deg": 140.2797,
      "arg_perigee_deg": 86.434,
      "mean_anomaly_deg": 273.7092,
      "mean_motion_rev_day": 15.19720343
    }
  ]
}